STARLINK-2022           
1 47643U 21012Z   23304.29937734  .00018799  00000+0  12769-2 0  9996
2 47643  53.0538 314.0620 0001339  94.1288 265.9854 15.06419339150066
